[{"OBJECT_NAME":"STARLINK-31941","OBJECT_ID":"2024-098J","EPOCH":"2026-03-09T22:17:11.792544","MEAN_MOTION":15.27472993,"ECCENTRICITY":9.216e-5,"INCLINATION":43.0008,"RA_OF_ASC_NODE":258.9013,"ARG_OF_PERICENTER":193.9113,"MEAN_ANOMALY":166.1713,"EPHEMERIS_TYPE":0,"CLASSIFICATION_TYPE":"U","NORAD_CAT_ID":59866,"ELEMENT_SET_NO":999,"REV_AT_EPOCH":10208,"BSTAR":0.00077490113,"MEAN_MOTION_DOT":0.00021053,"MEAN_MOTION_DDOT":0},{"OBJECT_NAME":"ELECTRON KICK STAGE R\/B","OBJECT_ID":"2024-047B","EPOCH":"2026-03-09T21:11:54.433824","MEAN_MOTION":15.27307897,"ECCENTRICITY":0.00092426,"INCLINATION":97.6338,"RA_OF_ASC_NODE":46.9382,"ARG_OF_PERICENTER":20.6031,"MEAN_ANOMALY":339.5579,"EPHEMERIS_TYPE":0,"CLASSIFICATION_TYPE":"U","NORAD_CAT_ID":59225,"ELEMENT_SET_NO":999,"REV_AT_EPOCH":10999,"BSTAR":0.00091229405,"MEAN_MOTION_DOT":0.00024409,"MEAN_MOTION_DDOT":0}]
